CCSDS_OMM_VERS = 2.0
CREATION_DATE  = 
ORIGINATOR     = 

OBJECT_NAME    = STARLINK-35725
OBJECT_ID      = 2026-016E
CENTER_NAME    = EARTH
REF_FRAME      = TEME
TIME_SYSTEM    = UTC
MEAN_ELEMENT_THEORY = SGP/SGP4

EPOCH          = 2026-02-16T14:00:01.999872
MEAN_MOTION    = 15.75267079
ECCENTRICITY   = .00015022
INCLINATION    = 97.2836
RA_OF_ASC_NODE = 106.9769
ARG_OF_PERICENTER = 93.2048
MEAN_ANOMALY   = 41.2682

EPHEMERIS_TYPE = 0
CLASSIFICATION_TYPE = U
NORAD_CAT_ID   = 67565
ELEMENT_SET_NO = 999
REV_AT_EPOCH   = 464
BSTAR          = -.69112699E-3
MEAN_MOTION_DOT = -.102334E-2
MEAN_MOTION_DDOT = 0

CCSDS_OMM_VERS = 2.0
CREATION_DATE  = 
ORIGINATOR     = 

OBJECT_NAME    = STARLINK-36394
OBJECT_ID      = 2026-016F
CENTER_NAME    = EARTH
REF_FRAME      = TEME
TIME_SYSTEM    = UTC
MEAN_ELEMENT_THEORY = SGP/SGP4

EPOCH          = 2026-02-16T14:59:55.021632
MEAN_MOTION    = 15.75225161
ECCENTRICITY   = .00023472
INCLINATION    = 97.2835
RA_OF_ASC_NODE = 107.0125
ARG_OF_PERICENTER = 95.6426
MEAN_ANOMALY   = 264.5107

EPHEMERIS_TYPE = 0
CLASSIFICATION_TYPE = U
NORAD_CAT_ID   = 67566
ELEMENT_SET_NO = 999
REV_AT_EPOCH   = 348
BSTAR          = .88867936E-3
MEAN_MOTION_DOT = .134747E-2
MEAN_MOTION_DDOT = 0

CCSDS_OMM_VERS = 2.0
CREATION_DATE  = 
ORIGINATOR     = 

OBJECT_NAME    = STARLINK-36352
OBJECT_ID      = 2026-016G
CENTER_NAME    = EARTH
REF_FRAME      = TEME
TIME_SYSTEM    = UTC
MEAN_ELEMENT_THEORY = SGP/SGP4

EPOCH          = 2026-02-16T14:33:38.289024
MEAN_MOTION    = 15.80936986
ECCENTRICITY   = .00008967
INCLINATION    = 97.2837
RA_OF_ASC_NODE = 107.0376
ARG_OF_PERICENTER = 108.3964
MEAN_ANOMALY   = 251.7402

EPHEMERIS_TYPE = 0
CLASSIFICATION_TYPE = U
NORAD_CAT_ID   = 67567
ELEMENT_SET_NO = 999
REV_AT_EPOCH   = 348
BSTAR          = .15101423E-2
MEAN_MOTION_DOT = .30099E-2
MEAN_MOTION_DDOT = 0

CCSDS_OMM_VERS = 2.0
CREATION_DATE  = 
ORIGINATOR     = 

OBJECT_NAME    = STARLINK-36435
OBJECT_ID      = 2026-016H
CENTER_NAME    = EARTH
REF_FRAME      = TEME
TIME_SYSTEM    = UTC
MEAN_ELEMENT_THEORY = SGP/SGP4

EPOCH          = 2026-02-16T14:30:23.736096
MEAN_MOTION    = 15.80924101
ECCENTRICITY   = .0001801
INCLINATION    = 97.2839
RA_OF_ASC_NODE = 107.0405
ARG_OF_PERICENTER = 311.6926
MEAN_ANOMALY   = 48.4188

EPHEMERIS_TYPE = 0
CLASSIFICATION_TYPE = U
NORAD_CAT_ID   = 67568
ELEMENT_SET_NO = 999
REV_AT_EPOCH   = 348
BSTAR          = .17025199E-2
MEAN_MOTION_DOT = .340712E-2
MEAN_MOTION_DDOT = 0

CCSDS_OMM_VERS = 2.0
CREATION_DATE  = 
ORIGINATOR     = 

OBJECT_NAME    = STARLINK-36575
OBJECT_ID      = 2026-016J
CENTER_NAME    = EARTH
REF_FRAME      = TEME
TIME_SYSTEM    = UTC
MEAN_ELEMENT_THEORY = SGP/SGP4

EPOCH          = 2026-02-16T12:57:30.182688
MEAN_MOTION    = 15.80964043
ECCENTRICITY   = .00017618
INCLINATION    = 97.2833
RA_OF_ASC_NODE = 106.9788
ARG_OF_PERICENTER = 19.0158
MEAN_ANOMALY   = 341.1176

EPHEMERIS_TYPE = 0
CLASSIFICATION_TYPE = U
NORAD_CAT_ID   = 67569
ELEMENT_SET_NO = 999
REV_AT_EPOCH   = 347
BSTAR          = .19334294E-2
MEAN_MOTION_DOT = .389865E-2
MEAN_MOTION_DDOT = 0

CCSDS_OMM_VERS = 2.0
CREATION_DATE  = 
ORIGINATOR     = 

OBJECT_NAME    = STARLINK-36562
OBJECT_ID      = 2026-016K
CENTER_NAME    = EARTH
REF_FRAME      = TEME
TIME_SYSTEM    = UTC
MEAN_ELEMENT_THEORY = SGP/SGP4

EPOCH          = 2026-02-16T12:56:11.677920
MEAN_MOTION    = 15.80883577
ECCENTRICITY   = .0001371
INCLINATION    = 97.2838
RA_OF_ASC_NODE = 106.9794
ARG_OF_PERICENTER = 77.3836
MEAN_ANOMALY   = 282.7585

EPHEMERIS_TYPE = 0
CLASSIFICATION_TYPE = U
NORAD_CAT_ID   = 67570
ELEMENT_SET_NO = 999
REV_AT_EPOCH   = 347
BSTAR          = .99824216E-3
MEAN_MOTION_DOT = .19603E-2
MEAN_MOTION_DDOT = 0

CCSDS_OMM_VERS = 2.0
CREATION_DATE  = 
ORIGINATOR     = 

OBJECT_NAME    = STARLINK-36578
OBJECT_ID      = 2026-016L
CENTER_NAME    = EARTH
REF_FRAME      = TEME
TIME_SYSTEM    = UTC
MEAN_ELEMENT_THEORY = SGP/SGP4

EPOCH          = 2026-02-16T13:31:28.759584
MEAN_MOTION    = 15.75295622
ECCENTRICITY   = .00010758
INCLINATION    = 97.2830
RA_OF_ASC_NODE = 106.9449
ARG_OF_PERICENTER = 26.3244
MEAN_ANOMALY   = 333.8076

EPHEMERIS_TYPE = 0
CLASSIFICATION_TYPE = U
NORAD_CAT_ID   = 67571
ELEMENT_SET_NO = 999
REV_AT_EPOCH   = 347
BSTAR          = .19127479E-2
MEAN_MOTION_DOT = .296661E-2
MEAN_MOTION_DDOT = 0

CCSDS_OMM_VERS = 2.0
CREATION_DATE  = 
ORIGINATOR     = 

OBJECT_NAME    = STARLINK-36350
OBJECT_ID      = 2026-016M
CENTER_NAME    = EARTH
REF_FRAME      = TEME
TIME_SYSTEM    = UTC
MEAN_ELEMENT_THEORY = SGP/SGP4

EPOCH          = 2026-02-16T14:51:47.107872
MEAN_MOTION    = 15.75237512
ECCENTRICITY   = .00019011
INCLINATION    = 97.2836
RA_OF_ASC_NODE = 107.0205
ARG_OF_PERICENTER = 86.2803
MEAN_ANOMALY   = 273.8679

EPHEMERIS_TYPE = 0
CLASSIFICATION_TYPE = U
NORAD_CAT_ID   = 67572
ELEMENT_SET_NO = 999
REV_AT_EPOCH   = 348
BSTAR          = .10907095E-2
MEAN_MOTION_DOT = .166104E-2
MEAN_MOTION_DDOT = 0

CCSDS_OMM_VERS = 2.0
CREATION_DATE  = 
ORIGINATOR     = 

OBJECT_NAME    = STARLINK-36588
OBJECT_ID      = 2026-016N
CENTER_NAME    = EARTH
REF_FRAME      = TEME
TIME_SYSTEM    = UTC
MEAN_ELEMENT_THEORY = SGP/SGP4

EPOCH          = 2026-02-16T14:54:49.757472
MEAN_MOTION    = 15.75255538
ECCENTRICITY   = .00010732
INCLINATION    = 97.2830
RA_OF_ASC_NODE = 107.0185
ARG_OF_PERICENTER = 95.8303
MEAN_ANOMALY   = 264.3085

EPHEMERIS_TYPE = 0
CLASSIFICATION_TYPE = U
NORAD_CAT_ID   = 67573
ELEMENT_SET_NO = 999
REV_AT_EPOCH   = 348
BSTAR          = .12474692E-2
MEAN_MOTION_DOT = .190691E-2
MEAN_MOTION_DDOT = 0

CCSDS_OMM_VERS = 2.0
CREATION_DATE  = 
ORIGINATOR     = 

OBJECT_NAME    = STARLINK-36594
OBJECT_ID      = 2026-016P
CENTER_NAME    = EARTH
REF_FRAME      = TEME
TIME_SYSTEM    = UTC
MEAN_ELEMENT_THEORY = SGP/SGP4

EPOCH          = 2026-02-16T14:20:33.755424
MEAN_MOTION    = 15.80949449
ECCENTRICITY   = .00016427
INCLINATION    = 97.2838
RA_OF_ASC_NODE = 107.0512
ARG_OF_PERICENTER = 50.8476
MEAN_ANOMALY   = 309.2938

EPHEMERIS_TYPE = 0
CLASSIFICATION_TYPE = U
NORAD_CAT_ID   = 67574
ELEMENT_SET_NO = 999
REV_AT_EPOCH   = 348
BSTAR          = .17376688E-2
MEAN_MOTION_DOT = .348465E-2
MEAN_MOTION_DDOT = 0

CCSDS_OMM_VERS = 2.0
CREATION_DATE  = 
ORIGINATOR     = 

OBJECT_NAME    = STARLINK-36400
OBJECT_ID      = 2026-016Q
CENTER_NAME    = EARTH
REF_FRAME      = TEME
TIME_SYSTEM    = UTC
MEAN_ELEMENT_THEORY = SGP/SGP4

EPOCH          = 2026-02-16T14:00:01.999872
MEAN_MOTION    = 15.75159319
ECCENTRICITY   = .00013604
INCLINATION    = 97.2845
RA_OF_ASC_NODE = 107.0211
ARG_OF_PERICENTER = 97.9211
MEAN_ANOMALY   = 146.5633

EPHEMERIS_TYPE = 0
CLASSIFICATION_TYPE = U
NORAD_CAT_ID   = 67575
ELEMENT_SET_NO = 999
REV_AT_EPOCH   = 459
BSTAR          = .57444594E-3
MEAN_MOTION_DOT = .86308E-3
MEAN_MOTION_DDOT = 0

CCSDS_OMM_VERS = 2.0
CREATION_DATE  = 
ORIGINATOR     = 

OBJECT_NAME    = STARLINK-36591
OBJECT_ID      = 2026-016R
CENTER_NAME    = EARTH
REF_FRAME      = TEME
TIME_SYSTEM    = UTC
MEAN_ELEMENT_THEORY = SGP/SGP4

EPOCH          = 2026-02-16T14:17:38.116320
MEAN_MOTION    = 15.80903061
ECCENTRICITY   = .00011583
INCLINATION    = 97.2845
RA_OF_ASC_NODE = 107.0538
ARG_OF_PERICENTER = 83.1443
MEAN_ANOMALY   = 276.9957

EPHEMERIS_TYPE = 0
CLASSIFICATION_TYPE = U
NORAD_CAT_ID   = 67576
ELEMENT_SET_NO = 999
REV_AT_EPOCH   = 348
BSTAR          = .98960726E-3
MEAN_MOTION_DOT = .19447E-2
MEAN_MOTION_DDOT = 0

