STARLINK-35725          
1 67565U 26016E   26047.58335648 -.00102334  00000+0 -69113-3 0  9992
2 67565  97.2836 106.9769 0001502  93.2048  41.2682 15.75267079  4644
STARLINK-36394          
1 67566U 26016F   26047.62494238  .00134747  00000+0  88868-3 0  9998
2 67566  97.2835 107.0125 0002347  95.6426 264.5107 15.75225161  3485
STARLINK-36352          
1 67567U 26016G   26047.60669316  .00300990  00000+0  15101-2 0  9992
2 67567  97.2837 107.0376 0000896 108.3964 251.7402 15.80936986  3488
STARLINK-36435          
1 67568U 26016H   26047.60444139  .00340712  00000+0  17025-2 0  9990
2 67568  97.2839 107.0405 0001801 311.6926  48.4188 15.80924101  3486
STARLINK-36575          
1 67569U 26016J   26047.53993267  .00389865  00000+0  19334-2 0  9991
2 67569  97.2833 106.9788 0001761  19.0158 341.1176 15.80964043  3472
STARLINK-36562          
1 67570U 26016K   26047.53902405  .00196030  00000+0  99824-3 0  9990
2 67570  97.2838 106.9794 0001371  77.3836 282.7585 15.80883577  3479
STARLINK-36578          
1 67571U 26016L   26047.56352731  .00296661  00000+0  19127-2 0  9993
2 67571  97.2830 106.9449 0001075  26.3244 333.8076 15.75295622  3472
STARLINK-36350          
1 67572U 26016M   26047.61929523  .00166104  00000+0  10907-2 0  9994
2 67572  97.2836 107.0205 0001901  86.2803 273.8679 15.75237512  3482
STARLINK-36588          
1 67573U 26016N   26047.62140923  .00190691  00000+0  12475-2 0  9995
2 67573  97.2830 107.0185 0001073  95.8303 264.3085 15.75255538  3489
STARLINK-36594          
1 67574U 26016P   26047.59761291  .00348465  00000+0  17377-2 0  9999
2 67574  97.2838 107.0512 0001642  50.8476 309.2938 15.80949449  3489
STARLINK-36400          
1 67575U 26016Q   26047.58335648  .00086308  00000+0  57445-3 0  9998
2 67575  97.2845 107.0211 0001360  97.9211 146.5633 15.75159319  4590
STARLINK-36591          
1 67576U 26016R   26047.59558005  .00194470  00000+0  98961-3 0  9992
2 67576  97.2845 107.0538 0001158  83.1443 276.9957 15.80903061  3483
